[{"OBJECT_NAME":"LEMUR-2-ALISIA","OBJECT_ID":"2025-009DB","EPOCH":"2026-04-27T04:24:51.727392","MEAN_MOTION":15.01950874,"ECCENTRICITY":0.000308,"INCLINATION":97.6918,"RA_OF_ASC_NODE":199.7267,"ARG_OF_PERICENTER":42.1305,"MEAN_ANOMALY":318.0155,"EPHEMERIS_TYPE":0,"CLASSIFICATION_TYPE":"U","NORAD_CAT_ID":62706,"ELEMENT_SET_NO":999,"REV_AT_EPOCH":9250,"BSTAR":0.00086718,"MEAN_MOTION_DOT":0.00011301,"MEAN_MOTION_DDOT":0},{"OBJECT_NAME":"LEMUR-2-ROUNDTRIPPER","OBJECT_ID":"2025-009DG","EPOCH":"2026-04-27T04:13:30.966240","MEAN_MOTION":15.02969005,"ECCENTRICITY":0.000291,"INCLINATION":97.724,"RA_OF_ASC_NODE":199.9641,"ARG_OF_PERICENTER":315.5474,"MEAN_ANOMALY":44.5517,"EPHEMERIS_TYPE":0,"CLASSIFICATION_TYPE":"U","NORAD_CAT_ID":62711,"ELEMENT_SET_NO":999,"REV_AT_EPOCH":6996,"BSTAR":0.00088938,"MEAN_MOTION_DOT":0.00011909,"MEAN_MOTION_DDOT":0},{"OBJECT_NAME":"LEMUR-2-MYNAMEISJEFF","OBJECT_ID":"2025-009DH","EPOCH":"2026-04-27T04:11:17.877408","MEAN_MOTION":15.0296484,"ECCENTRICITY":0.0002105,"INCLINATION":97.729,"RA_OF_ASC_NODE":200.3125,"ARG_OF_PERICENTER":15.2084,"MEAN_ANOMALY":344.9204,"EPHEMERIS_TYPE":0,"CLASSIFICATION_TYPE":"U","NORAD_CAT_ID":62712,"ELEMENT_SET_NO":999,"REV_AT_EPOCH":6996,"BSTAR":0.00086628,"MEAN_MOTION_DOT":0.00011596,"MEAN_MOTION_DDOT":0},{"OBJECT_NAME":"LEMUR-2-LEIA-PHILIP","OBJECT_ID":"2025-052AN","EPOCH":"2026-04-27T03:27:51.488352","MEAN_MOTION":14.97169017,"ECCENTRICITY":0.0005093,"INCLINATION":97.6894,"RA_OF_ASC_NODE":9.9457,"ARG_OF_PERICENTER":50.4896,"MEAN_ANOMALY":309.6776,"EPHEMERIS_TYPE":0,"CLASSIFICATION_TYPE":"U","NORAD_CAT_ID":63246,"ELEMENT_SET_NO":999,"REV_AT_EPOCH":6103,"BSTAR":0.00019073,"MEAN_MOTION_DOT":2.147e-5,"MEAN_MOTION_DDOT":0},{"OBJECT_NAME":"LEMUR-2-LIA-MARTIN","OBJECT_ID":"2025-052AQ","EPOCH":"2026-04-26T16:37:32.293632","MEAN_MOTION":14.97329649,"ECCENTRICITY":0.0003525,"INCLINATION":97.6942,"RA_OF_ASC_NODE":9.912,"ARG_OF_PERICENTER":23.5554,"MEAN_ANOMALY":336.5829,"EPHEMERIS_TYPE":0,"CLASSIFICATION_TYPE":"U","NORAD_CAT_ID":63248,"ELEMENT_SET_NO":999,"REV_AT_EPOCH":6097,"BSTAR":0.00052122955,"MEAN_MOTION_DOT":5.994e-5,"MEAN_MOTION_DDOT":0},{"OBJECT_NAME":"LEMUR-2-DELOITTE-1","OBJECT_ID":"2025-052BB","EPOCH":"2026-04-27T04:45:43.639200","MEAN_MOTION":14.9723311,"ECCENTRICITY":8.51e-5,"INCLINATION":97.699,"RA_OF_ASC_NODE":10.7337,"ARG_OF_PERICENTER":61.0723,"MEAN_ANOMALY":299.0585,"EPHEMERIS_TYPE":0,"CLASSIFICATION_TYPE":"U","NORAD_CAT_ID":63259,"ELEMENT_SET_NO":999,"REV_AT_EPOCH":6106,"BSTAR":0.00044459,"MEAN_MOTION_DOT":5.09e-5,"MEAN_MOTION_DDOT":0},{"OBJECT_NAME":"LEMUR-2-EMERSONROSE","OBJECT_ID":"2025-052BD","EPOCH":"2026-04-26T16:33:13.827168","MEAN_MOTION":14.98690347,"ECCENTRICITY":8.154e-5,"INCLINATION":97.6946,"RA_OF_ASC_NODE":10.6878,"ARG_OF_PERICENTER":199.8116,"MEAN_ANOMALY":160.3075,"EPHEMERIS_TYPE":0,"CLASSIFICATION_TYPE":"U","NORAD_CAT_ID":63261,"ELEMENT_SET_NO":999,"REV_AT_EPOCH":6102,"BSTAR":0.00039270354,"MEAN_MOTION_DOT":4.662e-5,"MEAN_MOTION_DDOT":0},{"OBJECT_NAME":"LEMUR-2-MARACHE-FRAN","OBJECT_ID":"2025-052BE","EPOCH":"2026-04-27T03:55:12.421344","MEAN_MOTION":14.99516735,"ECCENTRICITY":0.0002911,"INCLINATION":97.6927,"RA_OF_ASC_NODE":11.4001,"ARG_OF_PERICENTER":183.8759,"MEAN_ANOMALY":176.2442,"EPHEMERIS_TYPE":0,"CLASSIFICATION_TYPE":"U","NORAD_CAT_ID":63262,"ELEMENT_SET_NO":999,"REV_AT_EPOCH":6111,"BSTAR":0.00059588,"MEAN_MOTION_DOT":7.263e-5,"MEAN_MOTION_DDOT":0},{"OBJECT_NAME":"LEMUR-2-THEFALCONER","OBJECT_ID":"2025-052BG","EPOCH":"2026-04-27T03:37:19.952832","MEAN_MOTION":14.97025905,"ECCENTRICITY":0.0002338,"INCLINATION":97.6914,"RA_OF_ASC_NODE":10.3616,"ARG_OF_PERICENTER":136.5496,"MEAN_ANOMALY":223.5911,"EPHEMERIS_TYPE":0,"CLASSIFICATION_TYPE":"U","NORAD_CAT_ID":63264,"ELEMENT_SET_NO":999,"REV_AT_EPOCH":6105,"BSTAR":0.00040211,"MEAN_MOTION_DOT":4.574e-5,"MEAN_MOTION_DDOT":0},{"OBJECT_NAME":"LEMUR-2-UNTITLED-SC","OBJECT_ID":"2025-061A","EPOCH":"2026-04-27T04:10:24.072672","MEAN_MOTION":15.13103127,"ECCENTRICITY":0.0020834,"INCLINATION":97.5607,"RA_OF_ASC_NODE":92.9331,"ARG_OF_PERICENTER":81.9333,"MEAN_ANOMALY":278.4261,"EPHEMERIS_TYPE":0,"CLASSIFICATION_TYPE":"U","NORAD_CAT_ID":63351,"ELEMENT_SET_NO":999,"REV_AT_EPOCH":5987,"BSTAR":0.00025707,"MEAN_MOTION_DOT":4.508e-5,"MEAN_MOTION_DDOT":0},{"OBJECT_NAME":"LEMUR-2-ESPERANZA","OBJECT_ID":"2025-061B","EPOCH":"2026-04-26T21:21:01.960128","MEAN_MOTION":15.13186313,"ECCENTRICITY":0.0020346,"INCLINATION":97.5612,"RA_OF_ASC_NODE":92.7328,"ARG_OF_PERICENTER":82.2369,"MEAN_ANOMALY":278.1171,"EPHEMERIS_TYPE":0,"CLASSIFICATION_TYPE":"U","NORAD_CAT_ID":63352,"ELEMENT_SET_NO":999,"REV_AT_EPOCH":5983,"BSTAR":0.00025598,"MEAN_MOTION_DOT":4.498e-5,"MEAN_MOTION_DDOT":0},{"OBJECT_NAME":"LEMUR-2-KREMPEL-BRO2","OBJECT_ID":"2025-061C","EPOCH":"2026-04-27T04:41:39.221376","MEAN_MOTION":15.136163,"ECCENTRICITY":0.002128,"INCLINATION":97.5661,"RA_OF_ASC_NODE":93.5048,"ARG_OF_PERICENTER":74.4782,"MEAN_ANOMALY":285.8797,"EPHEMERIS_TYPE":0,"CLASSIFICATION_TYPE":"U","NORAD_CAT_ID":63353,"ELEMENT_SET_NO":999,"REV_AT_EPOCH":5989,"BSTAR":0.00028186,"MEAN_MOTION_DOT":5.023e-5,"MEAN_MOTION_DDOT":0},{"OBJECT_NAME":"LEMUR-2-THERMORAPTOR","OBJECT_ID":"2025-061D","EPOCH":"2026-04-27T04:19:26.141088","MEAN_MOTION":15.13685376,"ECCENTRICITY":0.0021033,"INCLINATION":97.5667,"RA_OF_ASC_NODE":93.5557,"ARG_OF_PERICENTER":73.7051,"MEAN_ANOMALY":286.6492,"EPHEMERIS_TYPE":0,"CLASSIFICATION_TYPE":"U","NORAD_CAT_ID":63354,"ELEMENT_SET_NO":999,"REV_AT_EPOCH":5989,"BSTAR":0.00027136,"MEAN_MOTION_DOT":4.842e-5,"MEAN_MOTION_DDOT":0},{"OBJECT_NAME":"LEMUR-2-NEUROSPICY","OBJECT_ID":"2025-061E","EPOCH":"2026-04-26T21:23:24.184032","MEAN_MOTION":15.13795194,"ECCENTRICITY":0.0018825,"INCLINATION":97.5592,"RA_OF_ASC_NODE":92.9349,"ARG_OF_PERICENTER":77.9964,"MEAN_ANOMALY":282.3376,"EPHEMERIS_TYPE":0,"CLASSIFICATION_TYPE":"U","NORAD_CAT_ID":63355,"ELEMENT_SET_NO":999,"REV_AT_EPOCH":5985,"BSTAR":0.00027549,"MEAN_MOTION_DOT":4.927e-5,"MEAN_MOTION_DDOT":0},{"OBJECT_NAME":"LEMUR-2-TILLINFINITY","OBJECT_ID":"2025-061F","EPOCH":"2026-04-26T21:07:42.354048","MEAN_MOTION":15.14379022,"ECCENTRICITY":0.0019931,"INCLINATION":97.5579,"RA_OF_ASC_NODE":93.1785,"ARG_OF_PERICENTER":67.2209,"MEAN_ANOMALY":293.1125,"EPHEMERIS_TYPE":0,"CLASSIFICATION_TYPE":"U","NORAD_CAT_ID":63356,"ELEMENT_SET_NO":999,"REV_AT_EPOCH":5987,"BSTAR":0.0002959,"MEAN_MOTION_DOT":5.388e-5,"MEAN_MOTION_DDOT":0},{"OBJECT_NAME":"LEMUR-2-KREMPEL-BRO1","OBJECT_ID":"2025-061G","EPOCH":"2026-04-27T04:15:51.956352","MEAN_MOTION":15.14195763,"ECCENTRICITY":0.0020632,"INCLINATION":97.5578,"RA_OF_ASC_NODE":93.4039,"ARG_OF_PERICENTER":67.3683,"MEAN_ANOMALY":292.9728,"EPHEMERIS_TYPE":0,"CLASSIFICATION_TYPE":"U","NORAD_CAT_ID":63357,"ELEMENT_SET_NO":999,"REV_AT_EPOCH":5991,"BSTAR":0.00026058,"MEAN_MOTION_DOT":4.714e-5,"MEAN_MOTION_DDOT":0}]
